{
  "type": "FeatureCollection",
  "features": [
    {
      "type": "Feature",
      "properties": {
        "norad_id": 29268,
        "name": "ARIRANG-2 (KOMPSAT-2)",
        "group": "resource",
        "lat": 25.4865588864413,
        "lon": -175.51593333069818,
        "alt_km": 683.0208535051815,
        "timestamp": "2025-12-26T10:30:49.915860+00:00",
        "meta_object_name": "ARIRANG-2 (KOMPSAT-2)",
        "meta_object_id": "2006-031A",
        "meta_epoch": "2025-12-26T04:24:16.356096",
        "meta_mean_motion": 14.6450491,
        "meta_eccentricity": 0.001312,
        "meta_inclination": 97.8259,
        "meta_ra_of_asc_node": 188.0011,
        "meta_arg_of_pericenter": 262.8073,
        "meta_mean_anomaly": 221.6527,
        "meta_ephemeris_type": 0,
        "meta_classification_type": "U",
        "meta_norad_cat_id": 29268,
        "meta_element_set_no": 999,
        "meta_rev_at_epoch": 3615,
        "meta_bstar": 6.6679e-05,
        "meta_mean_motion_dot": 3.09e-06,
        "meta_mean_motion_ddot": 0,
        "tle_line1": "1 29268U 06031A   25360.18352264  .00000309  00000+0  66679-4 0  9993",
        "tle_line2": "2 29268  97.8259 188.0011 0013120 262.8073 221.6527 14.64504910 36157"
      },
      "geometry": {
        "type": "Point",
        "coordinates": [
          -175.51593333069818,
          25.4865588864413
        ]
      }
    },
    {
      "type": "Feature",
      "properties": {
        "norad_id": 29709,
        "name": "LAPAN-TUBSAT",
        "group": "resource",
        "lat": -74.25427072780552,
        "lon": 21.32764011981494,
        "alt_km": 621.8067089954702,
        "timestamp": "2025-12-26T10:30:49.915870+00:00",
        "meta_object_name": "LAPAN-TUBSAT",
        "meta_object_id": "2007-001A",
        "meta_epoch": "2025-12-26T04:23:30.422400",
        "meta_mean_motion": 14.85689254,
        "meta_eccentricity": 0.0013123,
        "meta_inclination": 98.1266,
        "meta_ra_of_asc_node": 350.6164,
        "meta_arg_of_pericenter": 34.0239,
        "meta_mean_anomaly": 326.1814,
        "meta_ephemeris_type": 0,
        "meta_classification_type": "U",
        "meta_norad_cat_id": 29709,
        "meta_element_set_no": 999,
        "meta_rev_at_epoch": 2546,
        "meta_bstar": 7.4528e-05,
        "meta_mean_motion_dot": 5.9e-06,
        "meta_mean_motion_ddot": 0,
        "tle_line1": "1 29709U 07001A   25360.18299100  .00000590  00000+0  74528-4 0  9994",
        "tle_line2": "2 29709  98.1266 350.6164 0013123  34.0239 326.1814 14.85689254 25461"
      },
      "geometry": {
        "type": "Point",
        "coordinates": [
          21.32764011981494,
          -74.25427072780552
        ]
      }
    },
    {
      "type": "Feature",
      "properties": {
        "norad_id": 31113,
        "name": "HAIYANG-1B",
        "group": "resource",
        "lat": -5.333369481549065,
        "lon": -15.06479631026142,
        "alt_km": 782.4105423328774,
        "timestamp": "2025-12-26T10:30:49.915881+00:00",
        "meta_object_name": "HAIYANG-1B",
        "meta_object_id": "2007-010A",
        "meta_epoch": "2025-12-25T22:47:30.795072",
        "meta_mean_motion": 14.30969243,
        "meta_eccentricity": 0.0013551,
        "meta_inclination": 98.3331,
        "meta_ra_of_asc_node": 343.6829,
        "meta_arg_of_pericenter": 359.9847,
        "meta_mean_anomaly": 0.1334,
        "meta_ephemeris_type": 0,
        "meta_classification_type": "U",
        "meta_norad_cat_id": 31113,
        "meta_element_set_no": 999,
        "meta_rev_at_epoch": 97585,
        "meta_bstar": 6.0325e-05,
        "meta_mean_motion_dot": 1.17e-06,
        "meta_mean_motion_ddot": 0,
        "tle_line1": "1 31113U 07010A   25359.94966198  .00000117  00000+0  60325-4 0  9991",
        "tle_line2": "2 31113  98.3331 343.6829 0013551 359.9847   0.1334 14.30969243975859"
      },
      "geometry": {
        "type": "Point",
        "coordinates": [
          -15.06479631026142,
          -5.333369481549065
        ]
      }
    },
    {
      "type": "Feature",
      "properties": {
        "norad_id": 31598,
        "name": "COSMO-SKYMED 1",
        "group": "resource",
        "lat": 18.28883421422154,
        "lon": -176.6971134689689,
        "alt_km": 579.6412206135692,
        "timestamp": "2025-12-26T10:30:49.915891+00:00",
        "meta_object_name": "COSMO-SKYMED 1",
        "meta_object_id": "2007-023A",
        "meta_epoch": "2025-12-26T04:00:35.592768",
        "meta_mean_motion": 14.95862832,
        "meta_eccentricity": 0.0001172,
        "meta_inclination": 97.8839,
        "meta_ra_of_asc_node": 185.6551,
        "meta_arg_of_pericenter": 77.3468,
        "meta_mean_anomaly": 282.7883,
        "meta_ephemeris_type": 0,
        "meta_classification_type": "U",
        "meta_norad_cat_id": 31598,
        "meta_element_set_no": 999,
        "meta_rev_at_epoch": 391,
        "meta_bstar": 0.00028974,
        "meta_mean_motion_dot": 3.179e-05,
        "meta_mean_motion_ddot": 0,
        "tle_line1": "1 31598U 07023A   25360.16707862  .00003179  00000+0  28974-3 0  9993",
        "tle_line2": "2 31598  97.8839 185.6551 0001172  77.3468 282.7883 14.95862832  3918"
      },
      "geometry": {
        "type": "Point",
        "coordinates": [
          -176.6971134689689,
          18.28883421422154
        ]
      }
    },
    {
      "type": "Feature",
      "properties": {
        "norad_id": 31698,
        "name": "TERRASAR-X",
        "group": "resource",
        "lat": 74.98459973929688,
        "lon": -145.20618359913578,
        "alt_km": 500.1222571607186,
        "timestamp": "2025-12-26T10:30:49.915902+00:00",
        "meta_object_name": "TERRASAR-X",
        "meta_object_id": "2007-026A",
        "meta_epoch": "2025-12-25T13:30:40.378176",
        "meta_mean_motion": 15.19155603,
        "meta_eccentricity": 0.0001851,
        "meta_inclination": 97.4447,
        "meta_ra_of_asc_node": 4.756,
        "meta_arg_of_pericenter": 79.9289,
        "meta_mean_anomaly": 280.2154,
        "meta_ephemeris_type": 0,
        "meta_classification_type": "U",
        "meta_norad_cat_id": 31698,
        "meta_element_set_no": 999,
        "meta_rev_at_epoch": 2686,
        "meta_bstar": 7.0738e-05,
        "meta_mean_motion_dot": 1.419e-05,
        "meta_mean_motion_ddot": 0,
        "tle_line1": "1 31698U 07026A   25359.56296734  .00001419  00000+0  70738-4 0  9991",
        "tle_line2": "2 31698  97.4447   4.7560 0001851  79.9289 280.2154 15.19155603 26865"
      },
      "geometry": {
        "type": "Point",
        "coordinates": [
          -145.20618359913578,
          74.98459973929688
        ]
      }
    },
    {
      "type": "Feature",
      "properties": {
        "norad_id": 32060,
        "name": "WORLDVIEW-1 (WV-1)",
        "group": "resource",
        "lat": -0.1768010147498667,
        "lon": 117.74019390029666,
        "alt_km": 494.87865534218236,
        "timestamp": "2025-12-26T10:30:49.915913+00:00",
        "meta_object_name": "WORLDVIEW-1 (WV-1)",
        "meta_object_id": "2007-041A",
        "meta_epoch": "2025-12-25T21:54:28.538784",
        "meta_mean_motion": 15.23970328,
        "meta_eccentricity": 0.000309,
        "meta_inclination": 97.3821,
        "meta_ra_of_asc_node": 117.2002,
        "meta_arg_of_pericenter": 352.1251,
        "meta_mean_anomaly": 7.9937,
        "meta_ephemeris_type": 0,
        "meta_classification_type": "U",
        "meta_norad_cat_id": 32060,
        "meta_element_set_no": 999,
        "meta_rev_at_epoch": 1648,
        "meta_bstar": 0.00033312,
        "meta_mean_motion_dot": 7.994e-05,
        "meta_mean_motion_ddot": 0,
        "tle_line1": "1 32060U 07041A   25359.91283031  .00007994  00000+0  33312-3 0  9997",
        "tle_line2": "2 32060  97.3821 117.2002 0003090 352.1251   7.9937 15.23970328 16481"
      },
      "geometry": {
        "type": "Point",
        "coordinates": [
          117.74019390029666,
          -0.1768010147498667
        ]
      }
    },
    {
      "type": "Feature",
      "properties": {
        "norad_id": 32289,
        "name": "YAOGAN-3",
        "group": "resource",
        "lat": -62.87880291372099,
        "lon": 42.53557627778708,
        "alt_km": 606.1197314184865,
        "timestamp": "2025-12-26T10:30:49.915923+00:00",
        "meta_object_name": "YAOGAN-3",
        "meta_object_id": "2007-055A",
        "meta_epoch": "2025-12-26T04:21:11.766816",
        "meta_mean_motion": 14.89923264,
        "meta_eccentricity": 0.000125,
        "meta_inclination": 97.8357,
        "meta_ra_of_asc_node": 26.6844,
        "meta_arg_of_pericenter": 85.7138,
        "meta_mean_anomaly": 274.4222,
        "meta_ephemeris_type": 0,
        "meta_classification_type": "U",
        "meta_norad_cat_id": 32289,
        "meta_element_set_no": 999,
        "meta_rev_at_epoch": 98009,
        "meta_bstar": 0.00021756,
        "meta_mean_motion_dot": 2.038e-05,
        "meta_mean_motion_ddot": 0,
        "tle_line1": "1 32289U 07055A   25360.18138619  .00002038  00000+0  21756-3 0  9990",
        "tle_line2": "2 32289  97.8357  26.6844 0001250  85.7138 274.4222 14.89923264980092"
      },
      "geometry": {
        "type": "Point",
        "coordinates": [
          42.53557627778708,
          -62.87880291372099
        ]
      }
    }
  ]
}